{"type": "FeatureCollection", "features": [ {"type": "Feature", "properties": {"norad_id": 34909, "name": "COSMOS 2251 DEB", "group": "cosmos-2251-debris", "lat": -24.83310070506192, "lon": 77.95301346113537, "alt_km": 663.3775829555843, "timestamp": "2025-12-08T03:50:07.391537+00:00", "meta": {"OBJECT_NAME": "COSMOS 2251 DEB", "OBJECT_ID": "1993-036ADE", "EPOCH": "2025-12-07T00:19:56.827488", "MEAN_MOTION": 14.77752057, "ECCENTRICITY": 0.00848998, "INCLINATION": 74.0149, "RA_OF_ASC_NODE": 87.8275, "ARG_OF_PERICENTER": 224.867, "MEAN_ANOMALY": 134.5622, "EPHEMERIS_TYPE": 0, "CLASSIFICATION_TYPE": "U", "NORAD_CAT_ID": 34909, "ELEMENT_SET_NO": 999, "REV_AT_EPOCH": 66767, "BSTAR": 0.0010157119, "MEAN_MOTION_DOT": 7.71e-05, "MEAN_MOTION_DDOT": 0}, "tle": {"line1": "1 34909U 93036ADE 25341.01385217  .00007710  00000+0  10157-2 0  9998", "line2": "2 34909  74.0149  87.8275 0084899 224.8670 134.5622 14.77752057667676"}}, "geometry": {"type": "Point", "coordinates": [77.95301346113537, -24.83310070506192]}}, {"type": "Feature", "properties": {"norad_id": 34910, "name": "COSMOS 2251 DEB", "group": "cosmos-2251-debris", "lat": 68.8169412514912, "lon": 156.93360342427812, "alt_km": 1417.349403766797, "timestamp": "2025-12-08T03:50:07.391547+00:00", "meta": {"OBJECT_NAME": "COSMOS 2251 DEB", "OBJECT_ID": "1993-036ADF", "EPOCH": "2025-12-04T03:27:09.174816", "MEAN_MOTION": 13.3765034, "ECCENTRICITY": 0.04679235, "INCLINATION": 73.8763, "RA_OF_ASC_NODE": 114.9889, "ARG_OF_PERICENTER": 235.2756, "MEAN_ANOMALY": 311.3517, "EPHEMERIS_TYPE": 0, "CLASSIFICATION_TYPE": "U", "NORAD_CAT_ID": 34910, "ELEMENT_SET_NO": 999, "REV_AT_EPOCH": 81409, "BSTAR": 0.0018660381, "MEAN_MOTION_DOT": 1.821e-05, "MEAN_MOTION_DDOT": 0}, "tle": {"line1": "1 34910U 93036ADF 25338.14385619  .00001821  00000+0  18660-2 0  9990", "line2": "2 34910  73.8763 114.9889 0467923 235.2756 311.3517 13.37650340814099"}}, "geometry": {"type": "Point", "coordinates": [156.93360342427812, 68.8169412514912]}}, {"type": "Feature", "properties": {"norad_id": 34911, "name": "COSMOS 2251 DEB", "group": "cosmos-2251-debris", "lat": 12.086237093508359, "lon": -103.01422287891135, "alt_km": 637.6987215106428, "timestamp": "2025-12-08T03:50:07.391557+00:00", "meta": {"OBJECT_NAME": "COSMOS 2251 DEB", "OBJECT_ID": "1993-036ADG", "EPOCH": "2025-12-07T05:26:19.055616", "MEAN_MOTION": 14.59357456, "ECCENTRICITY": 0.00833398, "INCLINATION": 74.0413, "RA_OF_ASC_NODE": 255.2506, "ARG_OF_PERICENTER": 22.0762, "MEAN_ANOMALY": 130.0151, "EPHEMERIS_TYPE": 0, "CLASSIFICATION_TYPE": "U", "NORAD_CAT_ID": 34911, "ELEMENT_SET_NO": 999, "REV_AT_EPOCH": 88506, "BSTAR": 0.00032299875, "MEAN_MOTION_DOT": 1.573e-05, "MEAN_MOTION_DDOT": 0}, "tle": {"line1": "1 34911U 93036ADG 25341.22660944  .00001573  00000+0  32300-3 0  9993", "line2": "2 34911  74.0413 255.2506 0083339  22.0762 130.0151 14.59357456885066"}}, "geometry": {"type": "Point", "coordinates": [-103.01422287891135, 12.086237093508359]}}, {"type": "Feature", "properties": {"norad_id": 34913, "name": "COSMOS 2251 DEB", "group": "cosmos-2251-debris", "lat": 59.095767572220545, "lon": -40.52293005954863, "alt_km": 756.7366808708239, "timestamp": "2025-12-08T03:50:07.391567+00:00", "meta": {"OBJECT_NAME": "COSMOS 2251 DEB", "OBJECT_ID": "1993-036ADJ", "EPOCH": "2025-12-06T15:33:47.688768", "MEAN_MOTION": 14.34634436, "ECCENTRICITY": 0.00201338, "INCLINATION": 74.0279, "RA_OF_ASC_NODE": 293.6605, "ARG_OF_PERICENTER": 45.5566, "MEAN_ANOMALY": 135.1428, "EPHEMERIS_TYPE": 0, "CLASSIFICATION_TYPE": "U", "NORAD_CAT_ID": 34913, "ELEMENT_SET_NO": 999, "REV_AT_EPOCH": 65100, "BSTAR": 0.00010202972, "MEAN_MOTION_DOT": 2.63e-06, "MEAN_MOTION_DDOT": 0}, "tle": {"line1": "1 34913U 93036ADJ 25340.64846862  .00000263  00000+0  10203-3 0  9998", "line2": "2 34913  74.0279 293.6605 0020133  45.5566 135.1428 14.34634436651006"}}, "geometry": {"type": "Point", "coordinates": [-40.52293005954863, 59.095767572220545]}}, {"type": "Feature", "properties": {"norad_id": 34918, "name": "COSMOS 2251 DEB", "group": "cosmos-2251-debris", "lat": 45.12256952613594, "lon": 125.70420201953964, "alt_km": 707.9855614270791, "timestamp": "2025-12-08T03:50:07.391577+00:00", "meta": {"OBJECT_NAME": "COSMOS 2251 DEB", "OBJECT_ID": "1993-036ADP", "EPOCH": "2025-12-02T07:49:20.078112", "MEAN_MOTION": 14.60858458, "ECCENTRICITY": 0.0034182, "INCLINATION": 74.0712, "RA_OF_ASC_NODE": 333.4916, "ARG_OF_PERICENTER": 302.4495, "MEAN_ANOMALY": 120.4085, "EPHEMERIS_TYPE": 0, "CLASSIFICATION_TYPE": "U", "NORAD_CAT_ID": 34918, "ELEMENT_SET_NO": 999, "REV_AT_EPOCH": 65184, "BSTAR": 0.0024749, "MEAN_MOTION_DOT": 0.00012194, "MEAN_MOTION_DDOT": 0}, "tle": {"line1": "1 34918U 93036ADP 25336.32592683  .00012194  00000+0  24749-2 0  9997", "line2": "2 34918  74.0712 333.4916 0034182 302.4495 120.4085 14.60858458651845"}}, "geometry": {"type": "Point", "coordinates": [125.70420201953964, 45.12256952613594]}}, {"type": "Feature", "properties": {"norad_id": 34924, "name": "COSMOS 2251 DEB", "group": "cosmos-2251-debris", "lat": 30.961618420092986, "lon": -91.69908562120793, "alt_km": 659.8562517173614, "timestamp": "2025-12-08T03:50:07.391587+00:00", "meta": {"OBJECT_NAME": "COSMOS 2251 DEB", "OBJECT_ID": "1993-036ADV", "EPOCH": "2025-12-06T15:01:55.298208", "MEAN_MOTION": 14.59935355, "ECCENTRICITY": 0.00549735, "INCLINATION": 74.0408, "RA_OF_ASC_NODE": 101.1106, "ARG_OF_PERICENTER": 187.1682, "MEAN_ANOMALY": 184.4122, "EPHEMERIS_TYPE": 0, "CLASSIFICATION_TYPE": "U", "NORAD_CAT_ID": 34924, "ELEMENT_SET_NO": 999, "REV_AT_EPOCH": 87634, "BSTAR": 0.0019852608, "MEAN_MOTION_DOT": 9.701e-05, "MEAN_MOTION_DDOT": 0}, "tle": {"line1": "1 34924U 93036ADV 25340.62633447  .00009701  00000+0  19853-2 0  9996", "line2": "2 34924  74.0408 101.1106 0054973 187.1682 184.4122 14.59935355876347"}}, "geometry": {"type": "Point", "coordinates": [-91.69908562120793, 30.961618420092986]}}, {"type": "Feature", "properties": {"norad_id": 34944, "name": "COSMOS 2251 DEB", "group": "cosmos-2251-debris", "lat": -66.65864997702114, "lon": -162.2212747763329, "alt_km": 1002.330345244206, "timestamp": "2025-12-08T03:50:07.391597+00:00", "meta": {"OBJECT_NAME": "COSMOS 2251 DEB", "OBJECT_ID": "1993-036ADX", "EPOCH": "2025-12-04T10:12:22.381056", "MEAN_MOTION": 14.14153699, "ECCENTRICITY": 0.02196477, "INCLINATION": 73.7499, "RA_OF_ASC_NODE": 247.036, "ARG_OF_PERICENTER": 96.0887, "MEAN_ANOMALY": 266.5326, "EPHEMERIS_TYPE": 0, "CLASSIFICATION_TYPE": "U", "NORAD_CAT_ID": 34944, "ELEMENT_SET_NO": 999, "REV_AT_EPOCH": 63965, "BSTAR": 0.00098735372, "MEAN_MOTION_DOT": 2.346e-05, "MEAN_MOTION_DDOT": 0}, "tle": {"line1": "1 34944U 93036ADX 25338.42525904  .00002346  00000+0  98735-3 0  9996", "line2": "2 34944  73.7499 247.0360 0219647  96.0887 266.5326 14.14153699639656"}}, "geometry": {"type": "Point", "coordinates": [-162.2212747763329, -66.65864997702114]}}, {"type": "Feature", "properties": {"norad_id": 34946, "name": "COSMOS 2251 DEB", "group": "cosmos-2251-debris", "lat": -38.47937523585453, "lon": -22.274121765597673, "alt_km": 726.9087809538978, "timestamp": "2025-12-08T03:50:07.391607+00:00", "meta": {"OBJECT_NAME": "COSMOS 2251 DEB", "OBJECT_ID": "1993-036ADZ", "EPOCH": "2025-12-07T06:40:15.310272", "MEAN_MOTION": 14.61952741, "ECCENTRICITY": 0.00488457, "INCLINATION": 74.0231, "RA_OF_ASC_NODE": 352.5776, "ARG_OF_PERICENTER": 131.5042, "MEAN_ANOMALY": 229.0332, "EPHEMERIS_TYPE": 0, "CLASSIFICATION_TYPE": "U", "NORAD_CAT_ID": 34946, "ELEMENT_SET_NO": 999, "REV_AT_EPOCH": 88129, "BSTAR": 0.00089615394, "MEAN_MOTION_DOT": 4.538e-05, "MEAN_MOTION_DDOT": 0}, "tle": {"line1": "1 34946U 93036ADZ 25341.27795498  .00004538  00000+0  89615-3 0  9994", "line2": "2 34946  74.0231 352.5776 0048845 131.5042 229.0332 14.61952741881294"}}, "geometry": {"type": "Point", "coordinates": [-22.274121765597673, -38.47937523585453]}}, {"type": "Feature", "properties": {"norad_id": 34949, "name": "COSMOS 2251 DEB", "group": "cosmos-2251-debris", "lat": 19.919432098668764, "lon": 124.56530300089953, "alt_km": 672.6973513002358, "timestamp": "2025-12-08T03:50:07.391617+00:00", "meta": {"OBJECT_NAME": "COSMOS 2251 DEB", "OBJECT_ID": "1993-036AEC", "EPOCH": "2025-12-07T03:18:23.961312", "MEAN_MOTION": 14.73936848, "ECCENTRICITY": 0.00804436, "INCLINATION": 74.018, "RA_OF_ASC_NODE": 120.5995, "ARG_OF_PERICENTER": 267.0595, "MEAN_ANOMALY": 92.137, "EPHEMERIS_TYPE": 0, "CLASSIFICATION_TYPE": "U", "NORAD_CAT_ID": 34949, "ELEMENT_SET_NO": 999, "REV_AT_EPOCH": 88279, "BSTAR": 0.00083987468, "MEAN_MOTION_DOT": 5.775e-05, "MEAN_MOTION_DDOT": 0}, "tle": {"line1": "1 34949U 93036AEC 25341.13777733  .00005775  00000+0  83987-3 0  9994", "line2": "2 34949  74.0180 120.5995 0080443 267.0595  92.1370 14.73936848882794"}}, "geometry": {"type": "Point", "coordinates": [124.56530300089953, 19.919432098668764]}}, {"type": "Feature", "properties": {"norad_id": 34953, "name": "COSMOS 2251 DEB", "group": "cosmos-2251-debris", "lat": 70.71360514406004, "lon": 90.90876912748091, "alt_km": 630.6824893352787, "timestamp": "2025-12-08T03:50:07.391627+00:00", "meta": {"OBJECT_NAME": "COSMOS 2251 DEB", "OBJECT_ID": "1993-036AEG", "EPOCH": "2025-12-06T22:51:17.545824", "MEAN_MOTION": 14.688803, "ECCENTRICITY": 0.00577509, "INCLINATION": 74.0932, "RA_OF_ASC_NODE": 38.6539, "ARG_OF_PERICENTER": 32.4512, "MEAN_ANOMALY": 143.3164, "EPHEMERIS_TYPE": 0, "CLASSIFICATION_TYPE": "U", "NORAD_CAT_ID": 34953, "ELEMENT_SET_NO": 999, "REV_AT_EPOCH": 88043, "BSTAR": 0.0012814616, "MEAN_MOTION_DOT": 7.662e-05, "MEAN_MOTION_DDOT": 0}, "tle": {"line1": "1 34953U 93036AEG 25340.95228641  .00007662  00000+0  12815-2 0  9995", "line2": "2 34953  74.0932  38.6539 0057750  32.4512 143.3164 14.68880300880439"}}, "geometry": {"type": "Point", "coordinates": [90.90876912748091, 70.71360514406004]}}]}